{
  "type": "FeatureCollection",
  "features": [
    {
      "type": "Feature",
      "properties": {
        "norad_id": 59600,
        "name": "GSAT0227 (GALILEO 30)",
        "group": "gnss",
        "lat": -36.95179829428239,
        "lon": -41.84192570048331,
        "alt_km": 23230.42206020603,
        "timestamp": "2025-12-09T07:41:33.450420+00:00",
        "meta_object_name": "GSAT0227 (GALILEO 30)",
        "meta_object_id": "2024-079C",
        "meta_epoch": "2025-12-08T08:44:01.424832",
        "meta_mean_motion": 1.70474656,
        "meta_eccentricity": 0.00032972,
        "meta_inclination": 54.9942,
        "meta_ra_of_asc_node": 106.4167,
        "meta_arg_of_pericenter": 114.0276,
        "meta_mean_anomaly": 245.9681,
        "meta_ephemeris_type": 0,
        "meta_classification_type": "U",
        "meta_norad_cat_id": 59600,
        "meta_element_set_no": 999,
        "meta_rev_at_epoch": 1011,
        "meta_bstar": 0,
        "meta_mean_motion_dot": 8e-08,
        "meta_mean_motion_ddot": 0,
        "tle_line1": "1 59600U 24079C   25342.36390538  .00000008  00000+0  00000+0 0  9991",
        "tle_line2": "2 59600  54.9942 106.4167 0003297 114.0276 245.9681  1.70474656 10110"
      },
      "geometry": {
        "type": "Point",
        "coordinates": [
          -41.84192570048331,
          -36.95179829428239
        ]
      }
    },
    {
      "type": "Feature",
      "properties": {
        "norad_id": 61182,
        "name": "GSAT0232 (GALILEO 32)",
        "group": "gnss",
        "lat": 46.26220733399005,
        "lon": -86.9935776431886,
        "alt_km": 23222.005279714936,
        "timestamp": "2025-12-09T07:41:33.450432+00:00",
        "meta_object_name": "GSAT0232 (GALILEO 32)",
        "meta_object_id": "2024-167A",
        "meta_epoch": "2025-12-08T22:09:29.830752",
        "meta_mean_motion": 1.70473333,
        "meta_eccentricity": 0.00020304,
        "meta_inclination": 55.2421,
        "meta_ra_of_asc_node": 226.5356,
        "meta_arg_of_pericenter": 212.642,
        "meta_mean_anomaly": 325.1995,
        "meta_ephemeris_type": 0,
        "meta_classification_type": "U",
        "meta_norad_cat_id": 61182,
        "meta_element_set_no": 999,
        "meta_rev_at_epoch": 763,
        "meta_bstar": 0,
        "meta_mean_motion_dot": 1.4e-07,
        "meta_mean_motion_ddot": 0,
        "tle_line1": "1 61182U 24167A   25342.92326193  .00000014  00000+0  00000+0 0  9992",
        "tle_line2": "2 61182  55.2421 226.5356 0002030 212.6420 325.1995  1.70473333  7631"
      },
      "geometry": {
        "type": "Point",
        "coordinates": [
          -86.9935776431886,
          46.26220733399005
        ]
      }
    },
    {
      "type": "Feature",
      "properties": {
        "norad_id": 61183,
        "name": "GSAT0226 (GALILEO 31)",
        "group": "gnss",
        "lat": 4.700238789430419,
        "lon": 43.269254901933486,
        "alt_km": 23220.4580586133,
        "timestamp": "2025-12-09T07:41:33.450443+00:00",
        "meta_object_name": "GSAT0226 (GALILEO 31)",
        "meta_object_id": "2024-167B",
        "meta_epoch": "2025-12-08T04:07:13.318752",
        "meta_mean_motion": 1.70473397,
        "meta_eccentricity": 7.979e-05,
        "meta_inclination": 55.2409,
        "meta_ra_of_asc_node": 226.5616,
        "meta_arg_of_pericenter": 122.0254,
        "meta_mean_anomaly": 67.2121,
        "meta_ephemeris_type": 0,
        "meta_classification_type": "U",
        "meta_norad_cat_id": 61183,
        "meta_element_set_no": 999,
        "meta_rev_at_epoch": 759,
        "meta_bstar": 0,
        "meta_mean_motion_dot": 1.9e-07,
        "meta_mean_motion_ddot": 0,
        "tle_line1": "1 61183U 24167B   25342.17168193  .00000019  00000+0  00000+0 0  9999",
        "tle_line2": "2 61183  55.2409 226.5616 0000797 122.0254  67.2121  1.70473397  7594"
      },
      "geometry": {
        "type": "Point",
        "coordinates": [
          43.269254901933486,
          4.700238789430419
        ]
      }
    },
    {
      "type": "Feature",
      "properties": {
        "norad_id": 61186,
        "name": "BEIDOU-3 M25 (C47)",
        "group": "gnss",
        "lat": -29.794512784386125,
        "lon": -75.14908596211144,
        "alt_km": 21518.352870989635,
        "timestamp": "2025-12-09T07:41:33.450456+00:00",
        "meta_object_name": "BEIDOU-3 M25 (C47)",
        "meta_object_id": "2024-168B",
        "meta_epoch": "2025-12-08T20:08:08.310912",
        "meta_mean_motion": 1.8622988,
        "meta_eccentricity": 0.00054406,
        "meta_inclination": 54.6453,
        "meta_ra_of_asc_node": 308.8544,
        "meta_arg_of_pericenter": 295.846,
        "meta_mean_anomaly": 63.7287,
        "meta_ephemeris_type": 0,
        "meta_classification_type": "U",
        "meta_norad_cat_id": 61186,
        "meta_element_set_no": 999,
        "meta_rev_at_epoch": 823,
        "meta_bstar": 0,
        "meta_mean_motion_dot": -7.5e-07,
        "meta_mean_motion_ddot": 0,
        "tle_line1": "1 61186U 24168B   25342.83898508 -.00000075  00000+0  00000+0 0  9999",
        "tle_line2": "2 61186  54.6453 308.8544 0005440 295.8460  63.7287  1.86229880  8230"
      },
      "geometry": {
        "type": "Point",
        "coordinates": [
          -75.14908596211144,
          -29.794512784386125
        ]
      }
    },
    {
      "type": "Feature",
      "properties": {
        "norad_id": 61187,
        "name": "BEIDOU-3 M27 (C49)",
        "group": "gnss",
        "lat": 53.970194378953444,
        "lon": 51.49058922876846,
        "alt_km": 21525.464734544643,
        "timestamp": "2025-12-09T07:41:33.450468+00:00",
        "meta_object_name": "BEIDOU-3 M27 (C49)",
        "meta_object_id": "2024-168C",
        "meta_epoch": "2025-12-08T15:20:42.241056",
        "meta_mean_motion": 1.86230009,
        "meta_eccentricity": 0.00023172,
        "meta_inclination": 54.641,
        "meta_ra_of_asc_node": 308.845,
        "meta_arg_of_pericenter": 333.6022,
        "meta_mean_anomaly": 27.0867,
        "meta_ephemeris_type": 0,
        "meta_classification_type": "U",
        "meta_norad_cat_id": 61187,
        "meta_element_set_no": 999,
        "meta_rev_at_epoch": 571,
        "meta_bstar": 0,
        "meta_mean_motion_dot": -7.4e-07,
        "meta_mean_motion_ddot": 0,
        "tle_line1": "1 61187U 24168C   25342.63937779 -.00000074  00000+0  00000+0 0  9991",
        "tle_line2": "2 61187  54.6410 308.8450 0002317 333.6022  27.0867  1.86230009  5717"
      },
      "geometry": {
        "type": "Point",
        "coordinates": [
          51.49058922876846,
          53.970194378953444
        ]
      }
    },
    {
      "type": "Feature",
      "properties": {
        "norad_id": 62339,
        "name": "GPS BIII-7  (PRN 01)",
        "group": "gnss",
        "lat": -37.704490109700984,
        "lon": -51.021239803452126,
        "alt_km": 20159.60436071393,
        "timestamp": "2025-12-09T07:41:33.450481+00:00",
        "meta_object_name": "GPS BIII-7  (PRN 01)",
        "meta_object_id": "2024-242A",
        "meta_epoch": "2025-12-07T21:14:38.700960",
        "meta_mean_motion": 2.00567469,
        "meta_eccentricity": 0.00119344,
        "meta_inclination": 54.9247,
        "meta_ra_of_asc_node": 341.9365,
        "meta_arg_of_pericenter": 343.8064,
        "meta_mean_anomaly": 11.4848,
        "meta_ephemeris_type": 0,
        "meta_classification_type": "U",
        "meta_norad_cat_id": 62339,
        "meta_element_set_no": 999,
        "meta_rev_at_epoch": 741,
        "meta_bstar": 0,
        "meta_mean_motion_dot": -8.7e-07,
        "meta_mean_motion_ddot": 0,
        "tle_line1": "1 62339U 24242A   25341.88517015 -.00000087  00000+0  00000+0 0  9991",
        "tle_line2": "2 62339  54.9247 341.9365 0011934 343.8064  11.4848  2.00567469  7410"
      },
      "geometry": {
        "type": "Point",
        "coordinates": [
          -51.021239803452126,
          -37.704490109700984
        ]
      }
    },
    {
      "type": "Feature",
      "properties": {
        "norad_id": 62850,
        "name": "NVS-02 (IRNSS-1K)",
        "group": "gnss",
        "lat": -16.91926543832105,
        "lon": -83.54860357542334,
        "alt_km": 3736.0013876521743,
        "timestamp": "2025-12-09T07:41:33.450493+00:00",
        "meta_object_name": "NVS-02 (IRNSS-1K)",
        "meta_object_id": "2025-020A",
        "meta_epoch": "2025-12-08T09:53:41.443008",
        "meta_mean_motion": 2.17590053,
        "meta_eccentricity": 0.7347687,
        "meta_inclination": 20.9953,
        "meta_ra_of_asc_node": 329.2268,
        "meta_arg_of_pericenter": 23.4238,
        "meta_mean_anomaly": 357.5344,
        "meta_ephemeris_type": 0,
        "meta_classification_type": "U",
        "meta_norad_cat_id": 62850,
        "meta_element_set_no": 999,
        "meta_rev_at_epoch": 682,
        "meta_bstar": 0.00032972,
        "meta_mean_motion_dot": 2e-06,
        "meta_mean_motion_ddot": 0,
        "tle_line1": "1 62850U 25020A   25342.41228522  .00000200  00000+0  32972-3 0  9999",
        "tle_line2": "2 62850  20.9953 329.2268 7347687  23.4238 357.5344  2.17590053  6826"
      },
      "geometry": {
        "type": "Point",
        "coordinates": [
          -83.54860357542334,
          -16.91926543832105
        ]
      }
    }
  ]
}